NORAD_CAT_ID,OBJECT_NAME,OBJECT_TYPE,EPOCH,MEAN_MOTION,ECCENTRICITY,INCLINATION,RA_OF_ASC_NODE,ARG_OF_PERICENTER,MEAN_ANOMALY,BSTAR,MEAN_MOTION_DOT,MEAN_MOTION_DDOT,TLE_LINE0,TLE_LINE1,TLE_LINE2,SEMIMAJOR_AXIS,PERIOD,APOGEE,PERIGEE,DECAYED
55768.0,STARLINK-5583,PAYLOAD,2023-06-21 22:00:01,15.3714661,0.0003317,69.9982,206.7194,268.3894,88.818,-0.025113,-0.00846357,0.0,0 STARLINK-5583,1 55768U 23028AD  23172.91668981 -.00846357  00000-0 -25113-1 0  9997,2 55768  69.9982 206.7194 0003317 268.3894  88.8180 15.37146610 17925,6832.689,93.68,456.82,452.287,0.0
55768.0,STARLINK-5583,PAYLOAD,2023-06-22 06:00:00,15.36540106,0.00033,69.9985,205.8277,270.6165,130.1988,-0.02876,-0.0094183,0.0,0 STARLINK-5583,1 55768U 23028AD  23173.25001157 -.00941830  00000-0 -28760-1 0  9994,2 55768  69.9985 205.8277 0003300 270.6165 130.1988 15.36540106 17978,6834.487,93.717,458.607,454.096,0.0
55768.0,STARLINK-5583,PAYLOAD,2023-06-22 20:00:01,15.35358334,0.0003272,69.9984,204.269,270.3696,115.0105,-0.027325,-0.00867528,0.0,0 STARLINK-5583,1 55768U 23028AD  23173.83334491 -.00867528  00000-0 -27325-1 0  9995,2 55768  69.9984 204.2690 0003272 270.3696 115.0105 15.35358334 18066,6837.993,93.789,462.096,457.621,0.0
55768.0,STARLINK-5583,PAYLOAD,2023-06-23 06:00:00,15.34576448,0.0003166,69.9988,203.1575,270.7232,256.4379,-0.03023,-0.0093041,0.0,0 STARLINK-5583,1 55768U 23028AD  23174.25001157 -.00930410  00000-0 -30230-1 0  9992,2 55768  69.9988 203.1575 0003166 270.7232 256.4379 15.34576448 18129,6840.316,93.837,464.346,460.015,0.0
55768.0,STARLINK-5583,PAYLOAD,2023-06-24 14:00:01,15.31979165,0.0003291,69.9987,199.6094,272.2181,52.4385,-0.033046,-0.00936274,0.0,0 STARLINK-5583,1 55768U 23028AD  23175.58334491 -.00936274  00000-0 -33046-1 0  9991,2 55768  69.9987 199.6094 0003291 272.2181  52.4385 15.31979165 18336,6848.045,93.996,472.164,467.656,0.0
55768.0,STARLINK-5583,PAYLOAD,2023-06-25 22:00:01,15.29328909,0.0003203,69.9989,196.0758,267.7447,201.9757,-0.032801,-0.00861856,0.0,0 STARLINK-5583,1 55768U 23028AD  23176.91668981 -.00861856  00000-0 -32801-1 0  9994,2 55768  69.9989 196.0758 0003203 267.7447 201.9757 15.29328909 18530,6855.954,94.159,480.015,475.623,0.0
55768.0,STARLINK-5583,PAYLOAD,2023-06-26 06:00:00,15.28699528,0.00032,69.999,195.1946,270.431,233.5187,-0.035904,-0.00920058,0.0,0 STARLINK-5583,1 55768U 23028AD  23177.25001157 -.00920058  00000-0 -35904-1 0  9995,2 55768  69.9990 195.1946 0003200 270.4310 233.5187 15.28699528 18588,6857.836,94.198,481.895,477.506,0.0
55768.0,STARLINK-5583,PAYLOAD,2023-06-27 14:00:01,15.26120893,0.0003239,69.9985,191.6787,271.5895,1.6885,-0.040647,-0.00971617,0.0,0 STARLINK-5583,1 55768U 23028AD  23178.58334491 -.00971617  00000-0 -40647-1 0  9999,2 55768  69.9985 191.6787 0003239 271.5895   1.6885 15.26120893 18792,6865.559,94.357,489.647,485.2,0.0
55768.0,STARLINK-5583,PAYLOAD,2023-06-28 06:00:00,15.24777349,0.0003363,69.9987,189.9262,270.1017,63.172,-0.039705,-0.00915668,0.0,0 STARLINK-5583,1 55768U 23028AD  23179.25001157 -.00915668  00000-0 -39705-1 0  9991,2 55768  69.9987 189.9262 0003363 270.1017  63.1720 15.24777349 18895,6869.591,94.44,493.766,489.146,0.0
55768.0,STARLINK-5583,PAYLOAD,2023-06-28 14:00:01,15.24165135,0.0003383,69.9983,189.0511,273.6388,88.433,-0.043252,-0.00974575,0.0,0 STARLINK-5583,1 55768U 23028AD  23179.58334491 -.00974575  00000-0 -43252-1 0  9991,2 55768  69.9983 189.0511 0003383 273.6388  88.4330 15.24165135 18947,6871.431,94.478,495.62,490.971,0.0
55768.0,STARLINK-5583,PAYLOAD,2023-06-29 22:00:00,15.21518127,0.0003323,69.9983,185.5596,268.6855,200.8336,-0.042796,-0.00897158,0.0,0 STARLINK-5583,1 55768U 23028AD  23180.91667824 -.00897158  00000-0 -42796-1 0  9992,2 55768  69.9983 185.5596 0003323 268.6855 200.8336 15.21518127 19147,6879.398,94.642,503.549,498.977,0.0
55768.0,STARLINK-5583,PAYLOAD,2023-06-30 22:00:00,15.19568433,0.0003274,69.9981,182.9501,266.954,274.9279,-0.04593,-0.00908546,0.0,0 STARLINK-5583,1 55768U 23028AD  23181.91667824 -.00908546  00000-0 -45930-1 0  9990,2 55768  69.9981 182.9501 0003274 266.9540 274.9279 15.19568433 19295,6885.281,94.764,509.4,504.892,0.0
55768.0,STARLINK-5583,PAYLOAD,2023-07-01 14:00:01,15.1829117,0.0003283,69.9977,181.2145,271.9299,314.2803,-0.051259,-0.00971886,0.0,0 STARLINK-5583,1 55768U 23028AD  23182.58334491 -.00971886  00000-0 -51259-1 0  9993,2 55768  69.9977 181.2145 0003283 271.9299 314.2803 15.18291170 19407,6889.142,94.843,513.269,508.745,0.0
55768.0,STARLINK-5583,PAYLOAD,2023-07-02 04:00:00,15.17128444,0.0003299,69.9982,179.699,269.9725,262.4738,-0.051258,-0.00942184,0.0,0 STARLINK-5583,1 55768U 23028AD  23183.16667824 -.00942184  00000-0 -51258-1 0  9995,2 55768  69.9982 179.6990 0003299 269.9725 262.4738 15.17128444 19481,6892.661,94.916,516.8,512.252,0.0
55768.0,STARLINK-5583,PAYLOAD,2023-07-04 06:00:02,15.13029812,0.0003405,69.9986,174.3078,271.4178,100.9103,-0.054927,-0.00901762,0.0,0 STARLINK-5583,1 55768U 23028AD  23185.25002315 -.00901762  00000-0 -54927-1 0  9998,2 55768  69.9986 174.3078 0003405 271.4178 100.9103 15.13029812 19806,6905.103,95.173,529.32,524.617,0.0
55768.0,STARLINK-5583,PAYLOAD,2023-07-04 22:00:01,15.11752968,0.0003378,69.9989,172.5897,267.7626,133.2354,-0.058672,-0.00927404,0.0,0 STARLINK-5583,1 55768U 23028AD  23185.91668981 -.00927404  00000-0 -58672-1 0  9990,2 55768  69.9989 172.5897 0003378 267.7626 133.2354 15.11752968 19904,6908.991,95.254,533.19,528.522,0.0
55768.0,STARLINK-5583,PAYLOAD,2023-07-05 22:00:01,15.09800009,0.0003293,69.9995,170.0193,268.1458,170.0137,-0.062395,-0.00933709,0.0,0 STARLINK-5583,1 55768U 23028AD  23186.91668981 -.00933709  00000-0 -62395-1 0  9993,2 55768  69.9995 170.0193 0003293 268.1458 170.0137 15.09800009 20050,6914.948,95.377,539.09,534.535,0.0
55768.0,STARLINK-5583,PAYLOAD,2023-07-07 06:00:00,15.07153358,0.0003186,69.9998,166.6042,273.2961,203.4174,-0.063465,-0.00886805,0.0,0 STARLINK-5583,1 55768U 23028AD  23188.25001157 -.00886805  00000-0 -63465-1 0  9991,2 55768  69.9998 166.6042 0003186 273.2961 203.4174 15.07153358 20254,6923.041,95.544,547.111,542.7,0.0
55768.0,STARLINK-5583,PAYLOAD,2023-07-07 22:00:00,15.0589304,0.0003104,70.0,164.902,268.1275,223.1716,-0.070319,-0.00944805,0.0,0 STARLINK-5583,1 55768U 23028AD  23188.91667824 -.00944805  00000-0 -70319-1 0  9994,2 55768  70.0000 164.9020 0003104 268.1275 223.1716 15.05893040 20358,6926.903,95.624,550.918,546.618,0.0
55768.0,STARLINK-5583,PAYLOAD,2023-07-09 06:00:00,15.03236595,0.0003032,69.9996,161.5076,274.3661,236.7771,-0.069964,-0.00880197,0.0,0 STARLINK-5583,1 55768U 23028AD  23190.25001157 -.00880197  00000-0 -69964-1 0  9992,2 55768  69.9996 161.5076 0003032 274.3661 236.7771 15.03236595 20558,6935.061,95.793,559.029,554.823,0.0
55768.0,STARLINK-5583,PAYLOAD,2023-07-09 22:00:00,15.01981639,0.0002994,69.9996,159.8156,268.2207,248.1198,-0.078497,-0.00960436,0.0,0 STARLINK-5583,1 55768U 23028AD  23190.91667824 -.00960436  00000-0 -78497-1 0  9990,2 55768  69.9996 159.8156 0002994 268.2207 248.1198 15.01981639 20656,6938.923,95.873,562.866,558.711,0.0
55768.0,STARLINK-5583,PAYLOAD,2023-07-10 22:00:00,14.99971563,0.0003004,69.9993,157.2836,266.9718,251.3397,-0.070701,-0.00820148,0.0,0 STARLINK-5583,1 55768U 23028AD  23191.91667824 -.00820148  00000-0 -70701-1 0  9996,2 55768  69.9993 157.2836 0003004 266.9718 251.3397 14.99971563 20811,6945.121,96.002,569.072,564.9,0.0
55768.0,STARLINK-5583,PAYLOAD,2023-07-11 06:00:00,14.99274797,0.0003061,69.9991,156.4413,273.6515,243.7643,0.0014844,0.00018104,0.0,0 STARLINK-5583,1 55768U 23028AD  23192.25001157  .00018104  00000-0  14844-2 0  9991,2 55768  69.9991 156.4413 0003061 273.6515 243.7643 14.99274797 20863,6947.273,96.046,571.264,567.011,0.0
55768.0,STARLINK-5583,PAYLOAD,2023-07-12 14:00:01,14.99309272,0.0003101,69.999,153.074,268.2691,243.77,-0.0021829,-0.00026709,0.0,0 STARLINK-5583,1 55768U 23028AD  23193.58335648 -.00026709  00000-0 -21829-2 0  9996,2 55768  69.9990 153.0740 0003101 268.2691 243.7700 14.99309272 21051,6947.166,96.044,571.186,566.877,0.0
55768.0,STARLINK-5583,PAYLOAD,2023-07-13 18:00:00,14.99255436,0.0003146,69.9998,150.128,266.2433,61.0235,0.0065406,0.00080769,0.0,0 STARLINK-5583,1 55768U 23028AD  23194.75001157  .00080769  00000-0  65406-2 0  9994,2 55768  69.9998 150.1280 0003146 266.2433  61.0235 14.99255436 21233,6947.333,96.048,571.383,567.012,0.0
55768.0,STARLINK-5583,PAYLOAD,2023-07-14 00:33:04,14.99297298,0.0002957,69.9988,149.4392,267.9777,92.1044,-1.4912e-05,-2.76e-06,0.0,0 STARLINK-5583,1 55768U 23028AD  23195.02296512 -.00000276  00000-0 -14912-4 0  9991,2 55768  69.9988 149.4392 0002957 267.9777  92.1044 14.99297298 21274,6947.203,96.045,571.122,567.014,0.0
55768.0,STARLINK-5583,PAYLOAD,2023-07-15 00:34:08,14.99305028,0.0002953,69.9993,146.9124,268.9239,91.1583,9.4572e-06,2.2e-07,0.0,0 STARLINK-5583,1 55768U 23028AD  23196.02371080  .00000022  00000-0  94572-5 0  9994,2 55768  69.9993 146.9124 0002953 268.9239  91.1583 14.99305028 21420,6947.179,96.044,571.096,566.993,0.0
55768.0,STARLINK-5583,PAYLOAD,2023-07-15 06:58:25,14.99311527,0.000295,69.9993,146.2386,269.1723,90.9098,5.1393e-05,5.35e-06,0.0,0 STARLINK-5583,1 55768U 23028AD  23196.29057142  .00000535  00000-0  51393-4 0  9995,2 55768  69.9993 146.2386 0002950 269.1723  90.9098 14.99311527 21464,6947.159,96.044,571.074,566.975,0.0
55768.0,STARLINK-5583,PAYLOAD,2023-07-16 00:35:14,14.9929341,0.0002816,69.9998,144.3855,270.0151,90.0686,-5.1449e-05,-7.23e-06,0.0,0 STARLINK-5583,1 55768U 23028AD  23197.02447057 -.00000723  00000-0 -51449-4 0  9998,2 55768  69.9998 144.3855 0002816 270.0151  90.0686 14.99293410 21572,6947.215,96.045,571.037,567.124,0.0
55768.0,STARLINK-5583,PAYLOAD,2023-07-16 21:24:10,14.99303053,0.0003004,69.9992,142.1952,271.4432,88.6383,-4.5238e-05,-6.47e-06,0.0,0 STARLINK-5583,1 55768U 23028AD  23197.89178362 -.00000647  00000-0 -45238-4 0  9997,2 55768  69.9992 142.1952 0003004 271.4432  88.6383 14.99303053 21704,6947.185,96.045,571.137,566.963,0.0
